[{"OBJECT_NAME":"SUPERVIEW-1 03","OBJECT_ID":"2018-002A","EPOCH":"2026-03-09T22:14:33.880992","MEAN_MOTION":15.35916978,"ECCENTRICITY":0.00509393,"INCLINATION":97.3162,"RA_OF_ASC_NODE":154.1458,"ARG_OF_PERICENTER":177.0269,"MEAN_ANOMALY":183.1288,"EPHEMERIS_TYPE":0,"CLASSIFICATION_TYPE":"U","NORAD_CAT_ID":43099,"ELEMENT_SET_NO":999,"REV_AT_EPOCH":45311,"BSTAR":0.00062641306,"MEAN_MOTION_DOT":0.00022818,"MEAN_MOTION_DDOT":0},{"OBJECT_NAME":"STARLINK-31575","OBJECT_ID":"2024-068S","EPOCH":"2026-03-09T07:11:08.114208","MEAN_MOTION":15.27570718,"ECCENTRICITY":0.00014864,"INCLINATION":43.0058,"RA_OF_ASC_NODE":33.2061,"ARG_OF_PERICENTER":252.8034,"MEAN_ANOMALY":107.2655,"EPHEMERIS_TYPE":0,"CLASSIFICATION_TYPE":"U","NORAD_CAT_ID":59471,"ELEMENT_SET_NO":999,"REV_AT_EPOCH":10850,"BSTAR":-5.8305001e-5,"MEAN_MOTION_DOT":-1.866e-5,"MEAN_MOTION_DDOT":0}]
